[{"OBJECT_NAME":"JILIN-1 GAOFEN 3I","OBJECT_ID":"2020-065H","EPOCH":"2026-03-09T21:52:33.609504","MEAN_MOTION":15.70055987,"ECCENTRICITY":0.00105914,"INCLINATION":97.2419,"RA_OF_ASC_NODE":125.8258,"ARG_OF_PERICENTER":92.4806,"MEAN_ANOMALY":267.767,"EPHEMERIS_TYPE":0,"CLASSIFICATION_TYPE":"U","NORAD_CAT_ID":46461,"ELEMENT_SET_NO":999,"REV_AT_EPOCH":30463,"BSTAR":0.00089589772,"MEAN_MOTION_DOT":0.00109158,"MEAN_MOTION_DDOT":0},{"OBJECT_NAME":"STARLINK-11084 [DTC]","OBJECT_ID":"2024-088K","EPOCH":"2026-03-09T22:34:29.428896","MEAN_MOTION":15.69705232,"ECCENTRICITY":8.972e-5,"INCLINATION":53.1574,"RA_OF_ASC_NODE":324.8826,"ARG_OF_PERICENTER":118.0533,"MEAN_ANOMALY":242.0576,"EPHEMERIS_TYPE":0,"CLASSIFICATION_TYPE":"U","NORAD_CAT_ID":59717,"ELEMENT_SET_NO":999,"REV_AT_EPOCH":10631,"BSTAR":-2.352319e-6,"MEAN_MOTION_DOT":-8.73e-6,"MEAN_MOTION_DDOT":0}]
